OBJECT_NAME,OBJECT_ID,EPOCH,MEAN_MOTION,ECCENTRICITY,INCLINATION,RA_OF_ASC_NODE,ARG_OF_PERICENTER,MEAN_ANOMALY,EPHEMERIS_TYPE,CLASSIFICATION_TYPE,NORAD_CAT_ID,ELEMENT_SET_NO,REV_AT_EPOCH,BSTAR,MEAN_MOTION_DOT,MEAN_MOTION_DDOT
HAWK-8B,2024-066D,2026-07-23T02:16:14.483712,14.99296385,.00036635,45.6170,92.9626,254.3744,105.6733,0,U,59445,999,12521,.73361077E-4,.678E-5,0
HAWK-9A,2024-066E,2026-07-23T01:13:41.114784,14.99233013,.0003348,45.6102,91.8504,238.8775,121.1778,0,U,59446,999,12521,.11343891E-3,.1172E-4,0
QPS-SAR-7 (TSUKUYOMI-II),2024-066F,2026-07-22T23:32:33.234144,15.09315245,.00019052,45.6042,57.4252,198.4157,161.6659,0,U,59447,999,12563,.50340389E-3,.7909E-4,0
HAWK-9C,2024-066G,2026-07-23T06:01:56.127648,14.99233425,.00032967,45.6073,89.9124,226.7309,133.3297,0,U,59448,999,12524,.12515533E-3,.1317E-4,0
HAWK-8C,2024-066H,2026-07-23T02:15:26.646624,14.99295020,.00030543,45.6082,91.9762,257.9792,102.0747,0,U,59449,999,12521,.10265016E-3,.1041E-4,0
HAWK-9B,2024-066J,2026-07-23T02:50:06.311904,14.99229875,.00035972,45.6125,92.4421,222.6722,137.3880,0,U,59450,999,12522,.12754272E-3,.1346E-4,0
CENTAURI-6,2024-066K,2026-07-23T00:31:29.565408,15.06090324,.00018279,45.6065,67.3058,263.8319,96.2357,0,U,59451,999,12552,.39121559E-3,.5562E-4,0
KORSAT-1,2024-066L,2026-07-23T02:33:54.251424,14.98314913,.00065426,45.4114,58.1667,257.9141,102.1004,0,U,59452,999,12544,.30883406E-3,.3505E-4,0
STARLINK-31622,2024-068B,2026-07-22T17:38:04.801056,15.27583963,.00011962,43.0031,352.0696,248.0608,112.0117,0,U,59456,999,12917,.57254329E-4,.1314E-4,0
STARLINK-31319,2024-068C,2026-07-22T17:03:37.234368,15.27584311,.00007583,43.0027,348.4305,267.2565,92.8200,0,U,59457,999,12921,.22106607E-4,.347E-5,0
STARLINK-31625,2024-068D,2026-07-22T18:57:26.539200,15.27575394,.00009563,43.0034,351.6225,276.9975,83.0768,0,U,59458,999,12918,.4050698E-5,-.151E-5,0
STARLINK-31631,2024-068E,2026-07-22T19:51:31.696416,15.27834793,.0003188,43.0003,347.5877,267.7028,92.3458,0,U,59459,999,12923,-.15618217E-2,-.43331E-3,0
STARLINK-31620,2024-068F,2026-07-22T17:14:46.328064,15.27557247,.0001045,43.0035,348.4891,273.6760,86.3972,0,U,59460,999,12921,-.39818691E-4,-.1357E-4,0
STARLINK-31511,2024-068H,2026-07-22T19:06:41.306688,15.27597615,.0001457,43.0035,351.6703,258.7688,101.3000,0,U,59462,999,12918,.11248591E-3,.2836E-4,0
STARLINK-31364,2024-068J,2026-07-22T18:28:31.425888,15.27589209,.00007509,43.0008,348.0130,251.9843,108.0927,0,U,59463,999,12922,.39096767E-4,.814E-5,0
STARLINK-31597,2024-068K,2026-07-21T19:19:32.334240,15.27586940,.00011734,43.0045,357.1302,273.7889,86.2829,0,U,59464,999,12898,.78600379E-4,.1902E-4,0
STARLINK-31621,2024-068L,2026-07-22T19:01:08.431680,15.27579455,.00009205,43.0019,351.6518,237.8905,122.1857,0,U,59465,999,12918,.145015E-4,.137E-5,0
STARLINK-31462,2024-068M,2026-07-22T18:40:46.787520,15.27591436,.00005674,43.0014,351.5164,306.7421,53.3379,0,U,59466,999,12918,.27378274E-4,.492E-5,0
STARLINK-31592,2024-068N,2026-07-22T17:43:38.541792,15.27567741,.00009489,43.0012,352.0963,192.9832,167.0996,0,U,59467,999,12917,.27314058E-3,.7259E-4,0
STARLINK-31267,2024-068P,2026-07-22T19:01:36.978240,15.27583344,.00016577,43.0041,347.3092,264.4582,95.6080,0,U,59468,999,12923,.50330651E-4,.1123E-4,0
STARLINK-31381,2024-068Q,2026-07-22T18:59:58.193664,15.27583642,.00033154,43.0084,348.1731,257.2089,102.8392,0,U,59469,999,12922,.28575584E-4,.523E-5,0
STARLINK-31546,2024-068R,2026-07-22T09:07:17.673888,15.27578302,.00013453,43.0017,350.2443,278.6624,81.4075,0,U,59470,999,12916,.40111415E-4,.842E-5,0
STARLINK-31575,2024-068S,2026-07-22T18:43:19.867584,15.27581812,.00012321,43.0044,348.0887,280.0499,80.0213,0,U,59471,999,12922,.28761296E-4,.529E-5,0
STARLINK-31610,2024-068U,2026-07-22T18:29:41.287200,15.27574375,.00010469,43.0009,351.4746,273.8858,86.1874,0,U,59473,999,12918,-.14401683E-4,-.658E-5,0
STARLINK-31581,2024-068V,2026-07-22T16:55:03.878400,15.27584952,.00014167,43.0043,344.9093,274.2090,85.8600,0,U,59474,999,12925,.868982E-6,-.238E-5,0
STARLINK-31566,2024-068W,2026-07-22T20:09:26.056224,15.27560698,.00011367,43.0022,351.1324,264.2038,95.8684,0,U,59475,999,12919,-.30675015E-4,-.1105E-4,0
STARLINK-31515,2024-068X,2026-07-22T18:46:20.093664,15.27583511,.00010912,43.0035,351.5580,266.7122,93.3605,0,U,59476,999,12918,.42810467E-4,.916E-5,0
STARLINK-31531,2024-068Y,2026-07-23T06:26:28.140000,15.27582367,.00001835,43.0003,293.6909,332.6428,27.4414,0,U,59477,999,12988,-.49666901E-4,-.1628E-4,0
DUMMY SAT 3,2024-069A,2026-07-22T21:58:24.708000,0.98609602,.00519048,2.2179,81.0211,135.2389,224.9267,0,U,59479,999,816,0,-.21E-5,0
WSF-M,2024-070A,2026-07-23T00:00:22.329216,14.20742378,.00040814,98.7175,211.4611,207.5839,152.5122,0,U,59481,999,11818,.38079336E-4,.38E-6,0
STARLINK-31753,2024-071A,2026-07-23T07:03:30.857760,15.27573958,.00009116,43.0006,294.0015,284.0060,76.0690,0,U,59484,999,12894,-.73055414E-4,-.2271E-4,0
STARLINK-31733,2024-071C,2026-07-23T06:20:57.145056,15.27573741,.00007757,43.0006,293.7809,261.4686,98.6077,0,U,59486,999,12894,-.36676938E-4,-.1271E-4,0
STARLINK-31657,2024-071D,2026-07-22T22:54:13.280832,15.27574701,.00010889,42.9980,295.7508,260.1465,99.9264,0,U,59487,999,12889,-.36116734E-4,-.1255E-4,0
STARLINK-31754,2024-071E,2026-07-23T06:30:52.562880,15.27574681,.00016261,43.0042,301.6169,247.5035,112.5645,0,U,59488,999,12885,.24748482E-4,.419E-5,0
STARLINK-31638,2024-071F,2026-07-23T06:43:09.298272,15.27572007,.00010623,43.0018,293.8928,272.0967,87.9763,0,U,59489,999,12894,-.47917331E-4,-.158E-4,0
STARLINK-31670,2024-071G,2026-07-23T07:10:52.919040,15.27579586,.00009278,42.9992,305.3090,282.2137,77.8611,0,U,59490,999,12881,-.18387304E-4,-.768E-5,0
STARLINK-31712,2024-071H,2026-07-23T07:12:44.862336,15.27544029,.00014803,43.0008,305.2949,275.4252,84.6431,0,U,59491,999,12881,-.2859748E-3,-.8114E-4,0
STARLINK-31684,2024-071J,2026-07-23T06:36:26.014176,15.27592205,.00020597,43.0033,301.6451,166.5770,193.5136,0,U,59492,999,12885,-.16618413E-3,-.4834E-4,0
STARLINK-31678,2024-071K,2026-07-23T06:47:31.324416,15.27592491,.00008257,42.9988,301.6998,232.9582,127.1195,0,U,59493,999,12767,-.12277228E-3,-.364E-4,0
STARLINK-31744,2024-071L,2026-07-22T15:00:23.645088,15.27591345,.00014449,43.0003,305.3619,240.1182,119.9526,0,U,59494,999,12875,-.86816219E-4,-.2651E-4,0
STARLINK-31719,2024-071M,2026-07-22T15:40:25.919328,15.27584613,.00014082,43.0037,297.7923,273.7416,86.3274,0,U,59495,999,12884,.67492652E-4,.1596E-4,0
STARLINK-31728,2024-071N,2026-07-23T06:52:22.386144,15.27604590,.00014266,42.9995,293.9394,269.1942,90.8746,0,U,59496,999,12894,.20326077E-3,.5339E-4,0
STARLINK-31720,2024-071P,2026-07-22T14:30:20.229120,15.27593360,.00014346,43.0016,298.2882,263.3807,96.6881,0,U,59497,999,12883,.29781449E-4,.558E-5,0
STARLINK-31731,2024-071Q,2026-07-22T16:11:41.014464,15.27580761,.00010312,43.0014,297.0928,273.5131,86.5603,0,U,59498,999,12885,.1897435E-4,.26E-5,0
STARLINK-31742,2024-071R,2026-07-22T13:16:18.904512,15.27584385,.00013996,43.0026,297.8956,266.4891,93.5800,0,U,59499,999,12883,.39138366E-4,.815E-5,0
STARLINK-31512,2024-071S,2026-07-23T04:28:10.242624,15.27572744,.00011086,43.0015,254.3832,273.2239,86.8486,0,U,59500,999,12938,-.41486462E-4,-.1403E-4,0
STARLINK-31458,2024-071T,2026-07-22T22:48:39.646368,15.27579928,.00012587,43.0032,295.7199,281.3215,78.7496,0,U,59501,999,12889,-.3919368E-5,-.37E-5,0
STARLINK-31357,2024-071U,2026-07-23T07:33:06.696576,15.27570606,.00019205,43.0007,294.1482,279.0581,81.0054,0,U,59502,999,12894,-.39380788E-4,-.1346E-4,0
STARLINK-31508,2024-071V,2026-07-23T07:38:40.285248,15.27573761,.00013998,43.0041,294.1814,250.5608,109.5092,0,U,59503,999,12894,-.2465772E-4,-.94E-5,0
STARLINK-31535,2024-071W,2026-07-23T06:53:04.910496,15.27571172,.00012471,43.0014,301.7288,275.2953,84.7756,0,U,59504,999,12885,-.22173491E-4,-.872E-5,0
STARLINK-31533,2024-071X,2026-07-22T14:34:02.360928,15.27581302,.00011991,43.0013,298.3037,264.6546,95.4169,0,U,59505,999,12883,.10468346E-4,.26E-6,0
STARLINK-31524,2024-071Y,2026-07-23T05:39:57.053664,15.27573354,.0001403,43.0017,287.3081,260.1642,99.9052,0,U,59506,999,12901,.3388269E-5,-.169E-5,0
SUPERVIEW NEO-3 01,2024-072A,2026-07-23T06:37:53.461344,15.22405502,.00015346,97.4128,283.8366,60.1233,300.0156,0,U,59510,999,12619,.38631532E-3,.886E-4,0
STARLINK-31635,2024-073A,2026-07-23T04:39:41.625792,15.27548245,.00013154,43.0006,272.3959,159.5144,200.5761,0,U,59511,999,12690,-.13464145E-3,-.3962E-4,0
STARLINK-31650,2024-073B,2026-07-23T03:57:18.333792,15.27564886,.00012993,43.0016,273.0274,279.6608,80.4096,0,U,59512,999,12689,-.64171728E-4,-.2027E-4,0
STARLINK-31658,2024-073C,2026-07-23T03:03:28.211904,15.27581875,.0000757,43.0006,232.8702,320.6819,39.3978,0,U,59513,999,12734,-.28770941E-4,-.1053E-4,0
STARLINK-31669,2024-073E,2026-07-23T06:28:36.741216,15.27563554,.0001341,43.0007,272.0966,267.5734,92.4965,0,U,59515,999,12691,.6242958E-4,.1455E-4,0
STARLINK-31671,2024-073F,2026-07-23T05:46:18.922656,15.27517037,.00003935,43.0023,272.7323,186.9162,173.1684,0,U,59516,999,12690,-.30335477E-3,-.8583E-4,0
STARLINK-31674,2024-073G,2026-07-23T05:11:06.223200,15.27570627,.00010721,42.9997,272.5524,275.8375,84.2355,0,U,59517,999,12690,-.40556863E-4,-.1377E-4,0
STARLINK-31679,2024-073J,2026-07-23T03:26:04.312608,15.27573825,.00008794,43.0038,262.4778,288.0513,72.0243,0,U,59519,999,12701,-.21203853E-4,-.845E-5,0
STARLINK-31370,2024-073K,2026-07-23T05:42:33.257088,15.27585159,.00009512,43.0014,272.7142,263.4287,96.6457,0,U,59520,999,12690,.6284353E-4,.1468E-4,0
STARLINK-31404,2024-073L,2026-07-23T04:23:13.221888,15.27555887,.00007361,43.0009,273.1548,250.3292,109.7480,0,U,59521,999,12689,-.94677849E-4,-.2864E-4,0
STARLINK-31453,2024-073M,2026-07-23T03:27:23.836032,15.27581338,.00018476,42.9994,255.2704,289.5576,70.5076,0,U,59522,999,12709,.80209654E-3,.21877E-3,0
STARLINK-31476,2024-073N,2026-07-23T04:02:50.796672,15.27573335,.00011204,43.0007,273.0543,268.2720,91.8004,0,U,59523,999,12689,-.39266511E-4,-.1342E-4,0
